STARLINK-36917          
1 68059U 26041V   26082.44688645  .00374136  00000+0  23280-2 0  9994
2 68059  53.1583 353.2397 0002183  53.5811 306.5410 15.75342586  3394
STARLINK-36959          
1 68060U 26041W   26082.45174626  .00254447  00000+0  16121-2 0  9994
2 68060  53.1591 353.2708 0001311 112.7556 247.3603 15.75274206  3396
STARLINK-36915          
1 68061U 26041X   26082.41670139 -.00128449  00000+0 -84737-3 0  9994
2 68061  53.1589 353.2346 0001259 112.3240 151.9709 15.75215460  4585
STARLINK-36952          
1 68062U 26041Y   26082.45595748  .00449537  00000+0  27648-2 0  9990
2 68062  53.1593 353.2994 0002415  33.7468 326.3706 15.75395984  3396
STARLINK-37000          
1 68063U 26041Z   26082.41670139  .00038114  00000+0  25282-3 0  9993
2 68063  53.1585 353.2872 0001056  46.9860 191.5850 15.75135060  4586
STARLINK-36996          
1 68064U 26041AA  26082.23540587  .00646913  00000+0  29875-2 0  9990
2 68064  53.1585 354.0436 0000609  69.7220 290.3869 15.81263766  3363
STARLINK-36836          
1 68065U 26041AB  26082.17071725  .00339249  00000+0  16445-2 0  9997
2 68065  53.1586 354.3502 0000659  99.5905 260.5192 15.81019160  3352
STARLINK-36976          
1 68066U 26041AC  26082.44721998  .00249316  00000+0  15795-2 0  9994
2 68066  53.1585 353.2399 0003996  65.4327 294.7110 15.75286984  3397
STARLINK-36929          
1 68067U 26041AD  26082.45142137  .00451605  00000+0  27763-2 0  9992
2 68067  53.1590 353.2682 0001234  34.6038 325.5062 15.75398662  3395
STARLINK-36990          
1 68068U 26041AE  26082.29564690  .00312076  00000+0  15157-2 0  9999
2 68068  53.1589 353.7061 0000795  30.6523 329.4546 15.81051199  3372
STARLINK-36766          
1 68069U 26042A   26082.54129182  .00089393  00000+0  45199-3 0  9995
2 68069  53.1575 125.3594 0001401  69.0572 291.0601 15.80862287  4270
STARLINK-36823          
1 68070U 26042B   26082.54054391  .00036796  00000+0  18961-3 0  9992
2 68070  53.1574 125.3539 0001275  49.2209 310.8925 15.80821521  4271
