CCSDS_OMM_VERS = 2.0
CREATION_DATE  = 
ORIGINATOR     = 

OBJECT_NAME    = STARLINK-36917
OBJECT_ID      = 2026-041V
CENTER_NAME    = EARTH
REF_FRAME      = TEME
TIME_SYSTEM    = UTC
MEAN_ELEMENT_THEORY = SGP/SGP4

EPOCH          = 2026-03-23T10:43:30.989280
MEAN_MOTION    = 15.75342586
ECCENTRICITY   = .0002183
INCLINATION    = 53.1583
RA_OF_ASC_NODE = 353.2397
ARG_OF_PERICENTER = 53.5811
MEAN_ANOMALY   = 306.5410

EPHEMERIS_TYPE = 0
CLASSIFICATION_TYPE = U
NORAD_CAT_ID   = 68059
ELEMENT_SET_NO = 999
REV_AT_EPOCH   = 339
BSTAR          = .2328E-2
MEAN_MOTION_DOT = .374136E-2
MEAN_MOTION_DDOT = 0

CCSDS_OMM_VERS = 2.0
CREATION_DATE  = 
ORIGINATOR     = 

OBJECT_NAME    = STARLINK-36959
OBJECT_ID      = 2026-041W
CENTER_NAME    = EARTH
REF_FRAME      = TEME
TIME_SYSTEM    = UTC
MEAN_ELEMENT_THEORY = SGP/SGP4

EPOCH          = 2026-03-23T10:50:30.876864
MEAN_MOTION    = 15.75274206
ECCENTRICITY   = .0001311
INCLINATION    = 53.1591
RA_OF_ASC_NODE = 353.2708
ARG_OF_PERICENTER = 112.7556
MEAN_ANOMALY   = 247.3603

EPHEMERIS_TYPE = 0
CLASSIFICATION_TYPE = U
NORAD_CAT_ID   = 68060
ELEMENT_SET_NO = 999
REV_AT_EPOCH   = 339
BSTAR          = .16121E-2
MEAN_MOTION_DOT = .254447E-2
MEAN_MOTION_DDOT = 0

CCSDS_OMM_VERS = 2.0
CREATION_DATE  = 
ORIGINATOR     = 

OBJECT_NAME    = STARLINK-36915
OBJECT_ID      = 2026-041X
CENTER_NAME    = EARTH
REF_FRAME      = TEME
TIME_SYSTEM    = UTC
MEAN_ELEMENT_THEORY = SGP/SGP4

EPOCH          = 2026-03-23T10:00:03.000096
MEAN_MOTION    = 15.75215460
ECCENTRICITY   = .0001259
INCLINATION    = 53.1589
RA_OF_ASC_NODE = 353.2346
ARG_OF_PERICENTER = 112.3240
MEAN_ANOMALY   = 151.9709

EPHEMERIS_TYPE = 0
CLASSIFICATION_TYPE = U
NORAD_CAT_ID   = 68061
ELEMENT_SET_NO = 999
REV_AT_EPOCH   = 458
BSTAR          = -.84737E-3
MEAN_MOTION_DOT = -.128449E-2
MEAN_MOTION_DDOT = 0

CCSDS_OMM_VERS = 2.0
CREATION_DATE  = 
ORIGINATOR     = 

OBJECT_NAME    = STARLINK-36952
OBJECT_ID      = 2026-041Y
CENTER_NAME    = EARTH
REF_FRAME      = TEME
TIME_SYSTEM    = UTC
MEAN_ELEMENT_THEORY = SGP/SGP4

EPOCH          = 2026-03-23T10:56:34.726272
MEAN_MOTION    = 15.75395984
ECCENTRICITY   = .0002415
INCLINATION    = 53.1593
RA_OF_ASC_NODE = 353.2994
ARG_OF_PERICENTER = 33.7468
MEAN_ANOMALY   = 326.3706

EPHEMERIS_TYPE = 0
CLASSIFICATION_TYPE = U
NORAD_CAT_ID   = 68062
ELEMENT_SET_NO = 999
REV_AT_EPOCH   = 339
BSTAR          = .27648E-2
MEAN_MOTION_DOT = .449537E-2
MEAN_MOTION_DDOT = 0

CCSDS_OMM_VERS = 2.0
CREATION_DATE  = 
ORIGINATOR     = 

OBJECT_NAME    = STARLINK-37000
OBJECT_ID      = 2026-041Z
CENTER_NAME    = EARTH
REF_FRAME      = TEME
TIME_SYSTEM    = UTC
MEAN_ELEMENT_THEORY = SGP/SGP4

EPOCH          = 2026-03-23T10:00:03.000096
MEAN_MOTION    = 15.75135060
ECCENTRICITY   = .0001056
INCLINATION    = 53.1585
RA_OF_ASC_NODE = 353.2872
ARG_OF_PERICENTER = 46.9860
MEAN_ANOMALY   = 191.5850

EPHEMERIS_TYPE = 0
CLASSIFICATION_TYPE = U
NORAD_CAT_ID   = 68063
ELEMENT_SET_NO = 999
REV_AT_EPOCH   = 458
BSTAR          = .25282E-3
MEAN_MOTION_DOT = .38114E-3
MEAN_MOTION_DDOT = 0

CCSDS_OMM_VERS = 2.0
CREATION_DATE  = 
ORIGINATOR     = 

OBJECT_NAME    = STARLINK-36996
OBJECT_ID      = 2026-041AA
CENTER_NAME    = EARTH
REF_FRAME      = TEME
TIME_SYSTEM    = UTC
MEAN_ELEMENT_THEORY = SGP/SGP4

EPOCH          = 2026-03-23T05:38:59.067168
MEAN_MOTION    = 15.81263766
ECCENTRICITY   = .0000609
INCLINATION    = 53.1585
RA_OF_ASC_NODE = 354.0436
ARG_OF_PERICENTER = 69.7220
MEAN_ANOMALY   = 290.3869

EPHEMERIS_TYPE = 0
CLASSIFICATION_TYPE = U
NORAD_CAT_ID   = 68064
ELEMENT_SET_NO = 999
REV_AT_EPOCH   = 336
BSTAR          = .29875E-2
MEAN_MOTION_DOT = .646913E-2
MEAN_MOTION_DDOT = 0

CCSDS_OMM_VERS = 2.0
CREATION_DATE  = 
ORIGINATOR     = 

OBJECT_NAME    = STARLINK-36836
OBJECT_ID      = 2026-041AB
CENTER_NAME    = EARTH
REF_FRAME      = TEME
TIME_SYSTEM    = UTC
MEAN_ELEMENT_THEORY = SGP/SGP4

EPOCH          = 2026-03-23T04:05:49.970400
MEAN_MOTION    = 15.81019160
ECCENTRICITY   = .00006597
INCLINATION    = 53.1586
RA_OF_ASC_NODE = 354.3502
ARG_OF_PERICENTER = 99.5905
MEAN_ANOMALY   = 260.5192

EPHEMERIS_TYPE = 0
CLASSIFICATION_TYPE = U
NORAD_CAT_ID   = 68065
ELEMENT_SET_NO = 999
REV_AT_EPOCH   = 335
BSTAR          = .16445418E-2
MEAN_MOTION_DOT = .339249E-2
MEAN_MOTION_DDOT = 0

CCSDS_OMM_VERS = 2.0
CREATION_DATE  = 
ORIGINATOR     = 

OBJECT_NAME    = STARLINK-36976
OBJECT_ID      = 2026-041AC
CENTER_NAME    = EARTH
REF_FRAME      = TEME
TIME_SYSTEM    = UTC
MEAN_ELEMENT_THEORY = SGP/SGP4

EPOCH          = 2026-03-23T10:43:59.806272
MEAN_MOTION    = 15.75286984
ECCENTRICITY   = .0003996
INCLINATION    = 53.1585
RA_OF_ASC_NODE = 353.2399
ARG_OF_PERICENTER = 65.4327
MEAN_ANOMALY   = 294.7110

EPHEMERIS_TYPE = 0
CLASSIFICATION_TYPE = U
NORAD_CAT_ID   = 68066
ELEMENT_SET_NO = 999
REV_AT_EPOCH   = 339
BSTAR          = .15795E-2
MEAN_MOTION_DOT = .249316E-2
MEAN_MOTION_DDOT = 0

CCSDS_OMM_VERS = 2.0
CREATION_DATE  = 
ORIGINATOR     = 

OBJECT_NAME    = STARLINK-36929
OBJECT_ID      = 2026-041AD
CENTER_NAME    = EARTH
REF_FRAME      = TEME
TIME_SYSTEM    = UTC
MEAN_ELEMENT_THEORY = SGP/SGP4

EPOCH          = 2026-03-23T10:50:02.806368
MEAN_MOTION    = 15.75398662
ECCENTRICITY   = .0001234
INCLINATION    = 53.1590
RA_OF_ASC_NODE = 353.2682
ARG_OF_PERICENTER = 34.6038
MEAN_ANOMALY   = 325.5062

EPHEMERIS_TYPE = 0
CLASSIFICATION_TYPE = U
NORAD_CAT_ID   = 68067
ELEMENT_SET_NO = 999
REV_AT_EPOCH   = 339
BSTAR          = .27763E-2
MEAN_MOTION_DOT = .451605E-2
MEAN_MOTION_DDOT = 0

CCSDS_OMM_VERS = 2.0
CREATION_DATE  = 
ORIGINATOR     = 

OBJECT_NAME    = STARLINK-36990
OBJECT_ID      = 2026-041AE
CENTER_NAME    = EARTH
REF_FRAME      = TEME
TIME_SYSTEM    = UTC
MEAN_ELEMENT_THEORY = SGP/SGP4

EPOCH          = 2026-03-23T07:05:43.892160
MEAN_MOTION    = 15.81051199
ECCENTRICITY   = .0000795
INCLINATION    = 53.1589
RA_OF_ASC_NODE = 353.7061
ARG_OF_PERICENTER = 30.6523
MEAN_ANOMALY   = 329.4546

EPHEMERIS_TYPE = 0
CLASSIFICATION_TYPE = U
NORAD_CAT_ID   = 68068
ELEMENT_SET_NO = 999
REV_AT_EPOCH   = 337
BSTAR          = .15157E-2
MEAN_MOTION_DOT = .312076E-2
MEAN_MOTION_DDOT = 0

CCSDS_OMM_VERS = 2.0
CREATION_DATE  = 
ORIGINATOR     = 

OBJECT_NAME    = STARLINK-36766
OBJECT_ID      = 2026-042A
CENTER_NAME    = EARTH
REF_FRAME      = TEME
TIME_SYSTEM    = UTC
MEAN_ELEMENT_THEORY = SGP/SGP4

EPOCH          = 2026-03-23T12:59:27.613248
MEAN_MOTION    = 15.80862287
ECCENTRICITY   = .0001401
INCLINATION    = 53.1575
RA_OF_ASC_NODE = 125.3594
ARG_OF_PERICENTER = 69.0572
MEAN_ANOMALY   = 291.0601

EPHEMERIS_TYPE = 0
CLASSIFICATION_TYPE = U
NORAD_CAT_ID   = 68069
ELEMENT_SET_NO = 999
REV_AT_EPOCH   = 427
BSTAR          = .45199E-3
MEAN_MOTION_DOT = .89393E-3
MEAN_MOTION_DDOT = 0

CCSDS_OMM_VERS = 2.0
CREATION_DATE  = 
ORIGINATOR     = 

OBJECT_NAME    = STARLINK-36823
OBJECT_ID      = 2026-042B
CENTER_NAME    = EARTH
REF_FRAME      = TEME
TIME_SYSTEM    = UTC
MEAN_ELEMENT_THEORY = SGP/SGP4

EPOCH          = 2026-03-23T12:58:22.993824
MEAN_MOTION    = 15.80821521
ECCENTRICITY   = .0001275
INCLINATION    = 53.1574
RA_OF_ASC_NODE = 125.3539
ARG_OF_PERICENTER = 49.2209
MEAN_ANOMALY   = 310.8925

EPHEMERIS_TYPE = 0
CLASSIFICATION_TYPE = U
NORAD_CAT_ID   = 68070
ELEMENT_SET_NO = 999
REV_AT_EPOCH   = 427
BSTAR          = .18961E-3
MEAN_MOTION_DOT = .36796E-3
MEAN_MOTION_DDOT = 0

